{
  "type": "FeatureCollection",
  "features": [
    {
      "type": "Feature",
      "properties": {
        "norad_id": 40118,
        "name": "GAOFEN-2",
        "group": "resource",
        "lat": 24.386693008683725,
        "lon": -122.53471760518104,
        "alt_km": 624.0989306199563,
        "timestamp": "2025-12-20T14:38:01.615628+00:00",
        "meta_object_name": "GAOFEN-2",
        "meta_object_id": "2014-049A",
        "meta_epoch": "2025-12-20T07:26:52.861920",
        "meta_mean_motion": 14.80619559,
        "meta_eccentricity": 0.00087118,
        "meta_inclination": 98.0381,
        "meta_ra_of_asc_node": 53.4923,
        "meta_arg_of_pericenter": 92.0535,
        "meta_mean_anomaly": 268.1675,
        "meta_ephemeris_type": 0,
        "meta_classification_type": "U",
        "meta_norad_cat_id": 40118,
        "meta_element_set_no": 999,
        "meta_rev_at_epoch": 61276,
        "meta_bstar": 1.9318719e-05,
        "meta_mean_motion_dot": 9.5e-07,
        "meta_mean_motion_ddot": 0,
        "tle_line1": "1 40118U 14049A   25354.31033405  .00000095  00000+0  19319-4 0  9990",
        "tle_line2": "2 40118  98.0381  53.4923 0008711  92.0535 268.1675 14.80619559612767"
      },
      "geometry": {
        "type": "Point",
        "coordinates": [
          -122.53471760518104,
          24.386693008683725
        ]
      }
    },
    {
      "type": "Feature",
      "properties": {
        "norad_id": 40143,
        "name": "YAOGAN-21",
        "group": "resource",
        "lat": -75.52043593561767,
        "lon": -171.61656495697855,
        "alt_km": 504.940383076284,
        "timestamp": "2025-12-20T14:38:01.615639+00:00",
        "meta_object_name": "YAOGAN-21",
        "meta_object_id": "2014-053A",
        "meta_epoch": "2025-12-20T07:12:10.845792",
        "meta_mean_motion": 15.23746517,
        "meta_eccentricity": 0.00090027,
        "meta_inclination": 97.175,
        "meta_ra_of_asc_node": 37.2849,
        "meta_arg_of_pericenter": 17.949,
        "meta_mean_anomaly": 342.2064,
        "meta_ephemeris_type": 0,
        "meta_classification_type": "U",
        "meta_norad_cat_id": 40143,
        "meta_element_set_no": 999,
        "meta_rev_at_epoch": 62769,
        "meta_bstar": 8.8193005e-05,
        "meta_mean_motion_dot": 2.054e-05,
        "meta_mean_motion_ddot": 0,
        "tle_line1": "1 40143U 14053A   25354.30012553  .00002054  00000+0  88193-4 0  9996",
        "tle_line2": "2 40143  97.1750  37.2849 0009002  17.9490 342.2064 15.23746517627699"
      },
      "geometry": {
        "type": "Point",
        "coordinates": [
          -171.61656495697855,
          -75.52043593561767
        ]
      }
    },
    {
      "type": "Feature",
      "properties": {
        "norad_id": 40275,
        "name": "YAOGAN-22",
        "group": "resource",
        "lat": -35.357616896386965,
        "lon": 145.88136209720955,
        "alt_km": 1208.309304203216,
        "timestamp": "2025-12-20T14:38:01.615649+00:00",
        "meta_object_name": "YAOGAN-22",
        "meta_object_id": "2014-063A",
        "meta_epoch": "2025-12-20T05:41:26.616768",
        "meta_mean_motion": 13.15522949,
        "meta_eccentricity": 0.00060202,
        "meta_inclination": 100.7427,
        "meta_ra_of_asc_node": 137.7626,
        "meta_arg_of_pericenter": 230.0311,
        "meta_mean_anomaly": 130.0272,
        "meta_ephemeris_type": 0,
        "meta_classification_type": "U",
        "meta_norad_cat_id": 40275,
        "meta_element_set_no": 999,
        "meta_rev_at_epoch": 53628,
        "meta_bstar": 9.70656e-07,
        "meta_mean_motion_dot": -4.6e-07,
        "meta_mean_motion_ddot": 0,
        "tle_line1": "1 40275U 14063A   25354.23711362 -.00000046  00000+0  97066-6 0  9990",
        "tle_line2": "2 40275 100.7427 137.7626 0006020 230.0311 130.0272 13.15522949536281"
      },
      "geometry": {
        "type": "Point",
        "coordinates": [
          145.88136209720955,
          -35.357616896386965
        ]
      }
    },
    {
      "type": "Feature",
      "properties": {
        "norad_id": 40298,
        "name": "ASNARO",
        "group": "resource",
        "lat": -8.4168626439397,
        "lon": -110.73189348845769,
        "alt_km": 510.87330463435137,
        "timestamp": "2025-12-20T14:38:01.615659+00:00",
        "meta_object_name": "ASNARO",
        "meta_object_id": "2014-070A",
        "meta_epoch": "2025-12-20T05:54:22.879296",
        "meta_mean_motion": 15.19637468,
        "meta_eccentricity": 0.00057535,
        "meta_inclination": 97.3653,
        "meta_ra_of_asc_node": 70.01,
        "meta_arg_of_pericenter": 102.0202,
        "meta_mean_anomaly": 258.1678,
        "meta_ephemeris_type": 0,
        "meta_classification_type": "U",
        "meta_norad_cat_id": 40298,
        "meta_element_set_no": 999,
        "meta_rev_at_epoch": 61683,
        "meta_bstar": 0.00026949495,
        "meta_mean_motion_dot": 5.679e-05,
        "meta_mean_motion_ddot": 0,
        "tle_line1": "1 40298U 14070A   25354.24609814  .00005679  00000+0  26949-3 0  9997",
        "tle_line2": "2 40298  97.3653  70.0100 0005753 102.0202 258.1678 15.19637468616834"
      },
      "geometry": {
        "type": "Point",
        "coordinates": [
          -110.73189348845769,
          -8.4168626439397
        ]
      }
    },
    {
      "type": "Feature",
      "properties": {
        "norad_id": 40310,
        "name": "YAOGAN-24",
        "group": "resource",
        "lat": 13.160817642307562,
        "lon": 123.831053606807,
        "alt_km": 644.5239004220439,
        "timestamp": "2025-12-20T14:38:01.615669+00:00",
        "meta_object_name": "YAOGAN-24",
        "meta_object_id": "2014-072A",
        "meta_epoch": "2025-12-20T06:26:23.034624",
        "meta_mean_motion": 14.76191854,
        "meta_eccentricity": 0.00150839,
        "meta_inclination": 98.1224,
        "meta_ra_of_asc_node": 125.4016,
        "meta_arg_of_pericenter": 115.5402,
        "meta_mean_anomaly": 244.7368,
        "meta_ephemeris_type": 0,
        "meta_classification_type": "U",
        "meta_norad_cat_id": 40310,
        "meta_element_set_no": 999,
        "meta_rev_at_epoch": 59732,
        "meta_bstar": 0.0001299626,
        "meta_mean_motion_dot": 8.47e-06,
        "meta_mean_motion_ddot": 0,
        "tle_line1": "1 40310U 14072A   25354.26832216  .00000847  00000+0  12996-3 0  9999",
        "tle_line2": "2 40310  98.1224 125.4016 0015083 115.5402 244.7368 14.76191854597326"
      },
      "geometry": {
        "type": "Point",
        "coordinates": [
          123.831053606807,
          13.160817642307562
        ]
      }
    },
    {
      "type": "Feature",
      "properties": {
        "norad_id": 40336,
        "name": "CBERS 4",
        "group": "resource",
        "lat": 42.984290129755685,
        "lon": 44.50887198038818,
        "alt_km": 769.1009095500285,
        "timestamp": "2025-12-20T14:38:01.615679+00:00",
        "meta_object_name": "CBERS 4",
        "meta_object_id": "2014-079A",
        "meta_epoch": "2025-12-20T06:04:02.644032",
        "meta_mean_motion": 14.3552035,
        "meta_eccentricity": 0.00018135,
        "meta_inclination": 98.3305,
        "meta_ra_of_asc_node": 52.013,
        "meta_arg_of_pericenter": 104.3983,
        "meta_mean_anomaly": 255.7405,
        "meta_ephemeris_type": 0,
        "meta_classification_type": "U",
        "meta_norad_cat_id": 40336,
        "meta_element_set_no": 999,
        "meta_rev_at_epoch": 57828,
        "meta_bstar": 5.6050238e-05,
        "meta_mean_motion_dot": 1.19e-06,
        "meta_mean_motion_ddot": 0,
        "tle_line1": "1 40336U 14079A   25354.25280838  .00000119  00000+0  56050-4 0  9992",
        "tle_line2": "2 40336  98.3305  52.0130 0001813 104.3983 255.7405 14.35520350578284"
      },
      "geometry": {
        "type": "Point",
        "coordinates": [
          44.50887198038818,
          42.984290129755685
        ]
      }
    },
    {
      "type": "Feature",
      "properties": {
        "norad_id": 40362,
        "name": "YAOGAN-26",
        "group": "resource",
        "lat": 56.21281841896697,
        "lon": -15.674635614254122,
        "alt_km": 439.82198285245795,
        "timestamp": "2025-12-20T14:38:01.615689+00:00",
        "meta_object_name": "YAOGAN-26",
        "meta_object_id": "2014-088A",
        "meta_epoch": "2025-12-20T06:35:17.863584",
        "meta_mean_motion": 15.3955324,
        "meta_eccentricity": 0.00052217,
        "meta_inclination": 97.0634,
        "meta_ra_of_asc_node": 354.6813,
        "meta_arg_of_pericenter": 7.4771,
        "meta_mean_anomaly": 352.6553,
        "meta_ephemeris_type": 0,
        "meta_classification_type": "U",
        "meta_norad_cat_id": 40362,
        "meta_element_set_no": 999,
        "meta_rev_at_epoch": 61010,
        "meta_bstar": 0.00041577116,
        "meta_mean_motion_dot": 0.0001629,
        "meta_mean_motion_ddot": 0,
        "tle_line1": "1 40362U 14088A   25354.27451231  .00016290  00000+0  41577-3 0  9994",
        "tle_line2": "2 40362  97.0634 354.6813 0005221   7.4771 352.6553 15.39553240610106"
      },
      "geometry": {
        "type": "Point",
        "coordinates": [
          -15.674635614254122,
          56.21281841896697
        ]
      }
    }
  ]
}